<?xml version="1.0" encoding="UTF-8"?>
<kml xmlns="http://www.opengis.net/kml/2.2">
<Document>
<name>GPS Raw vs Filtered</name>

<Style id="rawStyle">
  <LineStyle>
    <color>ff0000ff</color>
    <width>3</width>
  </LineStyle>
</Style>

<Style id="filtStyle">
  <LineStyle>
    <color>ffff0000</color>
    <width>3</width>
  </LineStyle>
</Style>

<Placemark>
  <name>Raw GPS Track</name>
  <styleUrl>#rawStyle</styleUrl>
  <LineString>
    <tessellate>1</tessellate>
    <coordinates>
12.307238833333335,57.83441066666666,0
12.307234333333334,57.83441116666666,0
12.307238666666668,57.8344085,0
12.307240666666667,57.83441366666666,0
12.307253500000002,57.83441,0
12.307261666666667,57.83440766666666,0
12.307267999999999,57.83440466666666,0
12.3072795,57.8343955,0
12.307191666666665,57.8344145,0
12.307000666666665,57.8344855,0
12.306902,57.834555833333326,0
12.306916833333332,57.83455933333333,0
12.306930499999998,57.83455433333334,0
12.306955,57.83455633333333,0
12.306963,57.83457,0
12.306979000000002,57.834583,0
12.306999833333334,57.83459316666667,0
12.307036000000002,57.834602833333335,0
12.307046666666668,57.83460633333334,0
12.307064833333333,57.834609500000006,0
12.307076833333333,57.83460933333334,0
12.307112333333334,57.83459800000001,0
12.307142333333335,57.83458766666666,0
12.307156166666667,57.83458416666667,0
12.307165333333334,57.83459,0
12.307173833333332,57.83459,0
12.307212333333332,57.83458416666667,0
12.307199666666667,57.83457683333333,0
12.307199833333334,57.83457583333334,0
12.30721433333333,57.83455300000001,0
12.3071985,57.834557333333336,0
12.307200666666665,57.83455566666667,0
12.307214666666669,57.83454783333333,0
12.3072135,57.834559999999996,0
12.307219333333334,57.83455683333333,0
12.307232166666665,57.834548,0
12.307236499999998,57.83454400000001,0
12.307241666666668,57.83453816666667,0
12.307241166666666,57.83453033333333,0
12.307237833333334,57.834533166666674,0
12.307253,57.834515333333336,0
12.307266499999999,57.83451033333334,0
12.307285833333333,57.83449766666666,0
12.307302,57.83448533333333,0
12.307310833333334,57.834478499999996,0
12.307310333333332,57.83447416666666,0
12.307315833333332,57.834471833333325,0
12.307317333333334,57.834460166666666,0
12.307326166666666,57.83445266666666,0
12.307332333333333,57.83445116666667,0
12.307327166666669,57.83445449999999,0
12.307324833333332,57.83446366666667,0
12.307327166666669,57.83443049999999,0
12.307328333333333,57.83441733333334,0
12.307320333333333,57.83445933333334,0
12.307307666666668,57.8345015,0
12.3073055,57.83450133333334,0
12.307291666666666,57.83450366666666,0
12.307275,57.83449099999999,0
12.307285666666667,57.834470833333334,0
12.3072705,57.8344435,0
12.307266833333331,57.83441233333333,0
12.307301666666667,57.83441166666667,0
12.307304833333335,57.83440283333333,0
12.307312833333333,57.83443166666666,0
12.307317666666666,57.83444983333334,0
12.307317000000001,57.834461,0
12.307342333333334,57.8344795,0
12.307333999999999,57.83449649999999,0
12.307359833333331,57.83451149999999,0
12.307238833333335,57.83449866666667,0
12.307193833333335,57.834505166666666,0
12.307154333333335,57.83451016666666,0
12.307155499999999,57.83452033333333,0
12.3071355,57.83452833333334,0
12.307141999999999,57.83452766666666,0
12.307141833333333,57.83453899999999,0
12.307132000000001,57.834554499999996,0
12.307106833333334,57.83455933333333,0
12.307089166666666,57.834566166666676,0
12.307082333333335,57.834579166666664,0
12.307095,57.834572333333334,0
12.307148500000002,57.83454783333333,0
12.307173333333333,57.83453833333333,0
12.307201999999998,57.834538,0
12.307223666666667,57.834525666666664,0
12.307233,57.83452933333333,0
12.307232833333334,57.83451566666666,0
12.3072305,57.834522666666665,0
12.30723683333333,57.83451633333334,0
12.307237166666669,57.834515333333336,0
12.307245166666666,57.834515333333336,0
12.307244666666667,57.834514000000006,0
12.307251166666667,57.834510833333326,0
12.307258166666667,57.834511166666665,0
12.307253,57.834509,0
12.307271833333335,57.83450733333334,0
12.307267999999999,57.834509499999996,0
12.307273000000002,57.834509,0
12.307272833333332,57.83450883333333,0
12.307267833333333,57.834512,0
12.307269166666666,57.83450966666666,0
12.307276333333334,57.83450866666667,0
12.307277,57.83450866666667,0
12.307276333333334,57.8345075,0
12.307271666666669,57.83449733333334,0
12.307265333333332,57.834493499999994,0
12.307258333333333,57.834487499999994,0
12.307257166666666,57.834474,0
12.307249500000001,57.83445966666667,0
12.307247333333331,57.83444849999999,0
12.307249166666669,57.8344465,0
12.307248499999998,57.83443316666667,0
12.307254499999999,57.83444133333334,0
12.307258833333332,57.83442916666666,0
12.307265500000002,57.834424166666665,0
12.307276333333334,57.83443533333334,0
12.307273666666667,57.834437166666675,0
12.307277500000001,57.834428166666676,0
12.307282000000002,57.834435500000005,0
12.307280333333331,57.834437333333334,0
12.307276166666668,57.834438666666664,0
12.307283,57.83444066666666,0
12.307283,57.834437166666675,0
12.307266833333331,57.834432666666665,0
12.307262666666668,57.834424999999996,0
12.307267833333333,57.834429500000006,0
12.307271500000002,57.834425333333336,0
12.3072765,57.83441833333333,0
12.3072845,57.8344265,0
12.307282833333334,57.8344405,0
12.307308,57.834442499999994,0
12.307325333333331,57.8344375,0
12.307334166666665,57.834440166666674,0
12.3073215,57.83444599999999,0
12.307320166666667,57.83444983333334,0
12.3073205,57.83444766666666,0
12.307318333333335,57.83445133333333,0
12.307299166666667,57.8344565,0
12.307294166666669,57.8344525,0
12.3072925,57.83445,0
12.307283500000002,57.83445083333333,0
12.307274,57.83445533333334,0
12.3072635,57.83445716666667,0
12.307262,57.83446683333333,0
12.307254166666667,57.83446266666667,0
12.307249333333335,57.83445666666667,0
12.307254666666665,57.8344525,0
12.30725,57.83445566666666,0
12.307239333333333,57.83445516666667,0
12.307239833333332,57.83445916666666,0
12.307237833333334,57.8344555,0
12.307238166666666,57.834466000000006,0
12.307245333333332,57.834472166666664,0
12.307248166666666,57.8344685,0
12.307255833333333,57.834470833333334,0
12.307262,57.834467333333336,0
12.307262,57.83446983333333,0
12.307267166666668,57.834474666666665,0
12.307269833333331,57.834459,0
12.307257833333331,57.83446516666666,0
12.307246166666667,57.834461,0
12.307246999999998,57.83446300000001,0
12.307239666666666,57.834467499999995,0
12.3072425,57.834468666666666,0
12.307242333333333,57.834466166666665,0
12.307243000000001,57.834472166666664,0
12.3072405,57.834478499999996,0
12.307238166666666,57.834483,0
12.30722633333333,57.8344925,0
12.307212666666665,57.83449649999999,0
12.307223166666665,57.83449283333333,0
12.307215666666666,57.83449699999999,0
12.307212,57.83449933333333,0
12.307224499999998,57.83449416666667,0
12.307226833333335,57.834484999999994,0
12.307228833333333,57.834480166666665,0
12.307233,57.83447566666667,0
12.307237000000002,57.834469999999996,0

    </coordinates>
  </LineString>
</Placemark>

<Placemark>
  <name>Filtered GPS Track</name>
  <styleUrl>#filtStyle</styleUrl>
  <LineString>
    <tessellate>1</tessellate>
    <coordinates>
12.307233083333333,57.83441441666667,0
12.307233708333333,57.834412791666665,0
12.307236187500001,57.83441064583333,0
12.307238427083334,57.834412156249996,0
12.307245963541668,57.834411078125,0
12.307253815104168,57.834409372395825,0
12.307260907552083,57.83440701953124,0
12.307270203776042,57.83440125976562,0
12.307230935221353,57.83440787988281,0
12.30711580094401,57.83444668994141,0
12.307008900472004,57.834501261637364,0
12.306962866902667,57.83453029748535,0
12.306946683451333,57.834542315409344,0
12.306950841725667,57.83454932437134,0
12.306956920862833,57.83455966218567,0
12.306967960431418,57.83457133109283,0
12.306983896882375,57.834582248879755,0
12.30700994844119,57.834592541106545,0
12.307028307553928,57.83459943721994,0
12.307046570443632,57.834604468609975,0
12.307061701888482,57.83460690097166,0
12.307087017610908,57.83460245048583,0
12.307114675472121,57.83459505857624,0
12.307135421069395,57.83458961262146,0
12.307150377201364,57.83458980631073,0
12.307162105267349,57.83458990315536,0
12.30718721930034,57.83458703491102,0
12.307193442983504,57.83458193412218,0
12.307196638158418,57.83457888372776,0
12.307205485745875,57.83456594186388,0
12.307201992872937,57.83456163759861,0
12.307201329769802,57.834558652132635,0
12.307207998218235,57.83455324273299,0
12.307210749109117,57.83455662136649,0
12.307215041221225,57.83455672734991,0
12.307223603943946,57.83455236367495,0
12.307230051971972,57.834548181837484,0
12.30723585931932,57.834543174252076,0
12.307238512992992,57.834536753792705,0
12.307238173163164,57.83453496022969,0
12.307245586581582,57.83452514678151,0
12.30725604329079,57.83451774005743,0
12.307270938312062,57.83450770336204,0
12.30728646915603,57.834496518347684,0
12.307298651244682,57.83448750917384,0
12.307304492289006,57.83448083792025,0
12.30731016281117,57.83447633562679,0
12.307313748072252,57.834468251146724,0
12.307319957369458,57.83446045890669,0
12.307326145351396,57.83445581278668,0
12.307326656009032,57.83445515639334,0
12.307325744671182,57.834459411530005,0
12.307326455668926,57.834444955764994,0
12.30732739450113,57.83443114454917,0
12.307323863917231,57.83444523894126,0
12.30731576529195,57.83447336947063,0
12.307310632645974,57.83448735140198,0
12.30730114965632,57.834495509034326,0
12.307288074828161,57.834493254517156,0
12.307286870747413,57.83448204392525,0
12.307278685373706,57.83446277196262,0
12.30727275935352,57.83443755264798,0
12.307287213010094,57.834424609657326,0
12.307296023171714,57.834413721495324,0
12.307304428252523,57.83442269408099,0
12.307311047459594,57.83443626370717,0
12.307314023729798,57.83444863185358,0
12.307328178531566,57.83446406592679,0
12.307331089265782,57.83448028296339,0
12.307345461299557,57.834495891481694,0
12.307292147316446,57.83449727907418,0
12.307242990324891,57.83450122287042,0
12.307198661829112,57.834505694768545,0
12.307177080914556,57.834513014050934,0
12.307156290457277,57.83452067369214,0
12.307149145228639,57.8345241701794,0
12.307145489280986,57.83453158508969,0
12.307138744640493,57.834543042544844,0
12.307122788986913,57.83455118793909,0
12.30710597782679,57.83455867730288,0
12.307094155580062,57.834568921984776,0
12.307094577790032,57.834570627659055,0
12.307121538895016,57.83455923049619,0
12.307147436114175,57.83454878191476,0
12.307174718057087,57.83454339095738,0
12.307199192361876,57.83453452881202,0
12.30721609618094,57.834531931072675,0
12.307224464757136,57.83452379886967,0
12.307227482378568,57.83452323276817,0
12.30723215785595,57.83451978305075,0
12.307234662261308,57.83451755819205,0
12.307239914463988,57.83451644576269,0
12.307242290565327,57.83451522288135,0
12.307246728615997,57.83451302810734,0
12.307252447641332,57.834512097387,0
12.307252723820666,57.8345105486935,0
12.307262278577001,57.83450894101342,0
12.3072651392885,57.83450922050671,0
12.307269069644251,57.83450911025335,0
12.30727095148879,57.83450897179334,0
12.307269392411062,57.83451048589667,0
12.307269279538865,57.83451007628167,0
12.3072728064361,57.83450937147417,0
12.30727490321805,57.83450901907042,0
12.30727561827569,57.83450825953521,0
12.30727364247118,57.83450279643427,0
12.307269487902255,57.834498148217136,0
12.307263910617795,57.834492824108565,0
12.30726053864223,57.83448341205428,0
12.307255019321115,57.83447153936047,0
12.307251176327224,57.834460019680236,0
12.307250171496946,57.83445325984012,0
12.307249335748471,57.834443213253394,0
12.307251917874236,57.83444227329336,0
12.307255375603784,57.834435719980014,0
12.307260437801892,57.834429943323336,0
12.307268385567614,57.83443263832834,0
12.30727102611714,57.834434902497506,0
12.30727426305857,57.834431534582095,0
12.307278131529287,57.834433517291046,0
12.30727923243131,57.83443542531219,0
12.307277699548989,57.834437045989425,0
12.307280349774494,57.83443885632804,0
12.307281674887246,57.83443801149736,0
12.30727425411029,57.83443533908201,0
12.307268460388478,57.834430169541,0
12.307268146860906,57.8344298347705,0
12.307269823430454,57.83442758405192,0
12.307273161715226,57.83442295869263,0
12.307278830857614,57.83442472934631,0
12.307280832095474,57.834432614673155,0
12.307294416047737,57.83443755733658,0
12.307309874690533,57.83443752866829,0
12.3073220206786,57.83443884766748,0
12.3073217603393,57.834442423833735,0
12.307320963502983,57.83444612858354,0
12.307320731751492,57.8344468976251,0
12.307319532542413,57.83444911547922,0
12.30730934960454,57.83445280773961,0
12.307301758135605,57.8344526538698,0
12.307297129067802,57.8344513269349,0
12.307290314533903,57.834451080134116,0
12.30728215726695,57.83445320673373,0
12.307272828633476,57.8344551867002,0
12.307267414316737,57.83446101001676,0
12.307260790491702,57.83446183834172,0
12.30725506191252,57.83445925250419,0
12.307254864289591,57.83445587625209,0
12.307252432144796,57.83445577145938,0
12.307245882739064,57.83445546906302,0
12.307242858036199,57.834457317864846,0
12.307240345684766,57.83445640893242,0
12.307239256175716,57.834461204466216,0
12.307242294754523,57.83446668556644,0
12.307245230710596,57.83446759278322,0
12.307250532021964,57.83446921305828,0
12.307256266010981,57.8344682731958,0
12.307259133005491,57.83446905326457,0
12.307263149836078,57.83447185996562,0
12.307266491584706,57.83446542998281,0
12.307262162459018,57.83446529832474,0
12.307254164562842,57.83446314916237,0
12.307250582281421,57.83446307458119,0
12.307245124474044,57.83446528729059,0
12.30724381223702,57.834466976978625,0
12.307243072785177,57.834466571822645,0
12.30724303639259,57.83446936924466,0
12.307241768196295,57.834473934622324,0
12.30723996743148,57.834478467311165,0
12.307233150382405,57.834485483655584,0
12.307222908524535,57.834490991827785,0
12.3072230375956,57.83449191258056,0
12.307219352131133,57.83449445629027,0
12.307215676065567,57.83449689481181,0
12.307220088032782,57.83449553073924,0
12.307223460683058,57.83449026536962,0
12.307226147008196,57.83448521601814,0
12.307229573504099,57.83448044134241,0
12.30723328675205,57.8344752206712,0

    </coordinates>
  </LineString>
</Placemark>

</Document>
</kml>
